{
    "sachivalayams":[
    {
        "Sachivalayam number":"123445",
        "State":"Andhra Pradesh",
        "District":"Guntur",
        "Mandal":"Narasaraopet",
        "Village":"Rudravaram",
        "Pincode":"522508"
    },{
        "Sachivalayam number":"123456",
        "State":"Andhra Pradesh",
        "District":"Guntur",
        "Mandal":"Nadendla",
        "Village":"Satulur",
        "Pincode":"522549"
    },
    {
        "Sachivalayam number":"923445",
        "State":"Andhra Pradesh",
        "District":"Visakhapatnam",
        "Mandal":"Anandapuram",
        "Village":"Gambheeram",
        "Pincode":"530052"
    },
    {
       "Sachivalayam number":"923585",
        "State":"Andhra Pradesh",
        "District":"Visakhapatnam",
        "Mandal":"Seethamadhara",
        "Village":"Maddilapalem",
        "Pincode":"530003"
    },
    {
        "Sachivalayam number":"813585",
        "State":"Andhra Pradesh",
        "District":"Srikakulam",
        "Mandal":"Etcherla",
        "Village":"Dharmavaram",
        "Pincode":"532403"
    },{
        "Sachivalayam number":"819985",
        "State":"Andhra Pradesh",
        "District":"Srikakulam",
        "Mandal":"Narasannapeta",
        "Village":"Balaseema",
        "Pincode":"532425"
        
    },{
       "Sachivalayam number":"819985",
        "State":"Andhra Pradesh",
        "District":"Kadapa",
        "Mandal":"Vontimitta",
        "Village":"Mangampeta",
        "Pincode":"516152"
    },{
       "Sachivalayam number":"819985",
        "State":"Andhra Pradesh",
        "District":"Kadapa",
        "Mandal":"Jammalamadugu",
        "Village":"Devagudi",
        "Pincode":"516434"
    },{
        "Sachivalayam number":"819985",
        "State":"Andhra Pradesh",
        "District":"Kurnool",
        "Mandal":"Yemmiganur",
        "Village":"Malakapuram",
        "Pincode":"518222"
    },{
        "Sachivalayam number":"819985",
        "State":"Andhra Pradesh",
        "District":"Srikakulam",
        "Mandal":"Adoni",
        "Village":"Yadavalle",
        "Pincode":"518301"
    }
        
    ]
}